[{"OBJECT_NAME":"STARLINK-2488","OBJECT_ID":"2021-027BF","EPOCH":"2026-03-10T00:00:02.999808","MEAN_MOTION":15.93969953,"ECCENTRICITY":0.00036497,"INCLINATION":53.0379,"RA_OF_ASC_NODE":106.4809,"ARG_OF_PERICENTER":57.7521,"MEAN_ANOMALY":141.1258,"EPHEMERIS_TYPE":0,"CLASSIFICATION_TYPE":"U","NORAD_CAT_ID":48145,"ELEMENT_SET_NO":999,"REV_AT_EPOCH":593,"BSTAR":0.0014129322,"MEAN_MOTION_DOT":0.00529123,"MEAN_MOTION_DDOT":0.00012350147},{"OBJECT_NAME":"STARLINK-36906","OBJECT_ID":"2026-040X","EPOCH":"2026-03-09T22:00:01.999584","MEAN_MOTION":16.06844937,"ECCENTRICITY":8.552e-5,"INCLINATION":97.2771,"RA_OF_ASC_NODE":17.1293,"ARG_OF_PERICENTER":98.714,"MEAN_ANOMALY":295.6623,"EPHEMERIS_TYPE":0,"CLASSIFICATION_TYPE":"U","NORAD_CAT_ID":68036,"ELEMENT_SET_NO":999,"REV_AT_EPOCH":246,"BSTAR":-0.0015362547,"MEAN_MOTION_DOT":-0.01161463,"MEAN_MOTION_DDOT":0.00046868808}]
